[Satellite]
VERSION=1.1
NAME=FLOCK 2E-7
NICKNAME=FLOCK 2E-7
TLE1=1 41565U 98067JP  18021.06076617  .00055041  00000-0  22746-3 0  9995
TLE2=2 41565  51.6264 332.9439 0000383 203.4819 156.6167 15.85307249 94066
